OBJECT_NAME,OBJECT_ID,EPOCH,MEAN_MOTION,ECCENTRICITY,INCLINATION,RA_OF_ASC_NODE,ARG_OF_PERICENTER,MEAN_ANOMALY,EPHEMERIS_TYPE,CLASSIFICATION_TYPE,NORAD_CAT_ID,ELEMENT_SET_NO,REV_AT_EPOCH,BSTAR,MEAN_MOTION_DOT,MEAN_MOTION_DDOT
ONEWEB-0068,2020-020Y,2026-07-01T11:55:51.928320,13.11416642,.00016433,87.8886,18.2155,85.1798,274.9517,0,U,45446,999,30447,-.15690859E-2,-.543E-5,0
ONEWEB-0046,2020-020Z,2026-07-01T11:43:51.148416,13.11415760,.00018139,87.8877,18.2219,79.3722,280.7610,0,U,45447,999,30448,-.12122193E-2,-.417E-5,0
ONEWEB-0063,2020-020AA,2026-07-01T12:25:34.146048,13.11417908,.00020757,87.8889,18.2162,82.9438,277.1926,0,U,45448,999,30457,.50244904E-3,.191E-5,0
ONEWEB-0019,2020-020AB,2026-07-01T11:31:27.109632,13.11414927,.00018572,87.8879,18.2091,93.0035,267.1305,0,U,45449,999,30441,-.81419983E-3,-.276E-5,0
ONEWEB-0094,2020-020AC,2026-07-01T11:29:40.954272,13.17648196,.00016714,87.9142,3.0068,94.0931,266.0391,0,U,45450,999,30819,.81277944E-4,.44E-6,0
ONEWEB-0087,2020-020AD,2026-07-01T10:49:57.453024,13.11416689,.00015241,87.8897,18.2045,84.0569,276.0732,0,U,45451,999,30445,.11993415E-2,.438E-5,0
ONEWEB-0082,2020-020AE,2026-07-01T10:45:04.651200,13.11417483,.00015478,87.8889,18.2208,75.1990,284.9309,0,U,45452,999,30454,.1063358E-2,.39E-5,0
ONEWEB-0050,2020-020AF,2026-07-01T12:15:25.365600,14.90433865,.00006192,88.9284,231.2659,326.3088,33.8102,0,U,45453,999,34251,.20231575E-3,.1992E-4,0
ONEWEB-0034,2020-020AG,2026-07-01T11:39:10.713888,13.11414914,.00018349,87.8884,18.2226,87.2444,272.8894,0,U,45454,999,30446,-.10564512E-2,-.362E-5,0
ONEWEB-0060,2020-020AH,2026-07-01T12:24:09.086112,13.11417730,.00007984,87.8882,18.2131,88.2984,271.8235,0,U,45455,999,30442,.36639983E-3,.143E-5,0
ONEWEB-0086,2020-020AJ,2026-07-01T11:53:25.413792,13.11416930,.00013305,87.8887,18.2142,110.3318,249.7953,0,U,45456,999,30448,-.15268469E-2,-.528E-5,0
ONEWEB-0088,2020-020AK,2026-07-01T11:21:52.897824,13.11413970,.00019972,87.8892,18.1921,76.4946,283.6404,0,U,45457,999,30441,.3113282E-3,.123E-5,0
ONEWEB-0102,2020-100A,2026-07-01T11:11:50.272512,13.12441454,.00017955,87.8946,347.8344,102.7490,257.3839,0,U,47258,999,26660,.18424531E-3,.79E-6,0
ONEWEB-0109,2020-100B,2026-07-01T11:24:01.898208,13.12441940,.00019581,87.8956,347.8172,97.0015,263.1336,0,U,47259,999,26643,-.5809204E-3,-.196E-5,0
ONEWEB-0110,2020-100C,2026-07-01T12:03:04.595328,13.12444705,.00016155,87.8958,347.7965,99.5453,260.5858,0,U,47260,999,26660,-.36756426E-3,-.12E-5,0
ONEWEB-0111,2020-100D,2026-07-01T10:57:12.345696,13.12442110,.00017171,87.8957,347.8240,92.4325,267.7000,0,U,47261,999,26643,.11095032E-2,.412E-5,0
ONEWEB-0114,2020-100E,2026-07-01T11:41:05.619840,13.12443260,.00020539,87.8957,347.8157,96.7508,263.3854,0,U,47262,999,26639,-.14935409E-2,-.525E-5,0
ONEWEB-0117,2020-100F,2026-07-01T11:28:53.790240,13.12441635,.00018245,87.8955,347.8076,94.4116,265.7221,0,U,47263,999,26640,-.68826342E-3,-.235E-5,0
ONEWEB-0118,2020-100G,2026-07-01T10:27:54.838368,13.12443689,.00021174,87.8956,347.8191,87.9953,272.1418,0,U,47264,999,26659,.49670231E-3,.191E-5,0
ONEWEB-0119,2020-100H,2026-07-01T11:04:30.963936,13.12440838,.00018376,87.8946,347.8292,93.8215,266.3124,0,U,47265,999,26657,.72718358E-3,.274E-5,0
ONEWEB-0120,2020-100J,2026-07-01T11:38:50.930880,13.12441407,.00020148,87.8947,347.8257,96.7344,263.4014,0,U,47266,999,26660,-.86365177E-3,-.298E-5,0
ONEWEB-0121,2020-100K,2026-07-01T11:21:34.639776,13.12441606,.00015478,87.8957,347.8155,88.5166,271.6140,0,U,47267,999,26651,-.52267649E-3,-.175E-5,0
ONEWEB-0122,2020-100L,2026-07-01T11:13:03.157824,13.12443159,.00018592,87.8960,347.8216,98.9811,261.1528,0,U,47268,999,26642,.20099918E-3,.85E-6,0
ONEWEB-0123,2020-100M,2026-07-01T11:06:56.922912,13.12441256,.00019195,87.8945,347.8278,91.8659,268.2689,0,U,47269,999,26656,.65945523E-3,.25E-5,0
ONEWEB-0124,2020-100N,2026-07-01T10:52:19.015968,13.12442026,.00017526,87.8946,347.8329,91.9805,268.1524,0,U,47270,999,26644,.11706809E-2,.434E-5,0
ONEWEB-0125,2020-100P,2026-07-01T12:10:22.755648,13.12443619,.00017601,87.8957,347.8073,83.3153,276.8176,0,U,47271,999,26651,.44629846E-4,.29E-6,0
ONEWEB-0126,2020-100Q,2026-07-01T10:50:05.438112,13.12442517,.00019321,87.8951,347.8329,95.1294,265.0055,0,U,47272,999,26657,.97028698E-3,.362E-5,0
ONEWEB-0127,2020-100R,2026-07-01T11:50:51.623520,13.12443296,.00019409,87.8948,347.8229,96.3522,263.7828,0,U,47273,999,26660,-.906194E-3,-.313E-5,0
ONEWEB-0128,2020-100S,2026-07-01T10:32:48.122304,13.12443317,.00015622,87.8946,347.8472,100.4446,259.6858,0,U,47274,999,26661,.10689525E-2,.397E-5,0
ONEWEB-0129,2020-100T,2026-07-01T11:53:17.394144,13.12443779,.00028519,87.8957,347.8118,105.4679,254.6764,0,U,47275,999,26655,-.11754932E-2,-.41E-5,0
