ONEWEB-0068             
1 45446U 20020Y   26182.49712880 -.00000543  00000+0 -15691-2 0  9992
2 45446  87.8886  18.2155 0001643  85.1798 274.9517 13.11416642304476
ONEWEB-0046             
1 45447U 20020Z   26182.48878644 -.00000417  00000+0 -12122-2 0  9999
2 45447  87.8877  18.2219 0001813  79.3722 280.7610 13.11415760304489
ONEWEB-0063             
1 45448U 20020AA  26182.51775632  .00000191  00000+0  50245-3 0  9993
2 45448  87.8889  18.2162 0002075  82.9438 277.1926 13.11417908304571
ONEWEB-0019             
1 45449U 20020AB  26182.48017488 -.00000276  00000+0 -81420-3 0  9993
2 45449  87.8879  18.2091 0001857  93.0035 267.1305 13.11414927304416
ONEWEB-0094             
1 45450U 20020AC  26182.47894623  .00000044  00000+0  81278-4 0  9991
2 45450  87.9142   3.0068 0001671  94.0931 266.0391 13.17648196308193
ONEWEB-0087             
1 45451U 20020AD  26182.45135941  .00000438  00000+0  11993-2 0  9993
2 45451  87.8897  18.2045 0001524  84.0569 276.0732 13.11416689304455
ONEWEB-0082             
1 45452U 20020AE  26182.44797050  .00000390  00000+0  10634-2 0  9996
2 45452  87.8889  18.2208 0001547  75.1990 284.9309 13.11417483304543
ONEWEB-0050             
1 45453U 20020AF  26182.51071025  .00001992  00000+0  20232-3 0  9997
2 45453  88.9284 231.2659 0000619 326.3088  33.8102 14.90433865342511
ONEWEB-0034             
1 45454U 20020AG  26182.48554067 -.00000362  00000+0 -10565-2 0  9995
2 45454  87.8884  18.2226 0001834  87.2444 272.8894 13.11414914304469
ONEWEB-0060             
1 45455U 20020AH  26182.51677183  .00000143  00000+0  36640-3 0  9993
2 45455  87.8882  18.2131 0000798  88.2984 271.8235 13.11417730304424
ONEWEB-0086             
1 45456U 20020AJ  26182.49543303 -.00000528  00000+0 -15268-2 0  9998
2 45456  87.8887  18.2142 0001330 110.3318 249.7953 13.11416930304481
ONEWEB-0088             
1 45457U 20020AK  26182.47352891  .00000123  00000+0  31133-3 0  9996
2 45457  87.8892  18.1921 0001997  76.4946 283.6404 13.11413970304412
ONEWEB-0102             
1 47258U 20100A   26182.46655408  .00000079  00000+0  18425-3 0  9994
2 47258  87.8946 347.8344 0001795 102.7490 257.3839 13.12441454266604
ONEWEB-0109             
1 47259U 20100B   26182.47502197 -.00000196  00000+0 -58092-3 0  9998
2 47259  87.8956 347.8172 0001958  97.0015 263.1336 13.12441940266433
ONEWEB-0110             
1 47260U 20100C   26182.50213652 -.00000120  00000+0 -36756-3 0  9999
2 47260  87.8958 347.7965 0001615  99.5453 260.5858 13.12444705266600
ONEWEB-0111             
1 47261U 20100D   26182.45639289  .00000412  00000+0  11095-2 0  9992
2 47261  87.8957 347.8240 0001717  92.4325 267.7000 13.12442110266437
ONEWEB-0114             
1 47262U 20100E   26182.48687060 -.00000525  00000+0 -14935-2 0  9999
2 47262  87.8957 347.8157 0002053  96.7508 263.3854 13.12443260266390
ONEWEB-0117             
1 47263U 20100F   26182.47840035 -.00000235  00000+0 -68826-3 0  9999
2 47263  87.8955 347.8076 0001824  94.4116 265.7221 13.12441635266404
ONEWEB-0118             
1 47264U 20100G   26182.43605137  .00000191  00000+0  49670-3 0  9993
2 47264  87.8956 347.8191 0002117  87.9953 272.1418 13.12443689266597
ONEWEB-0119             
1 47265U 20100H   26182.46146949  .00000274  00000+0  72718-3 0  9999
2 47265  87.8946 347.8292 0001837  93.8215 266.3124 13.12440838266574
ONEWEB-0120             
1 47266U 20100J   26182.48531170 -.00000298  00000+0 -86365-3 0  9997
2 47266  87.8947 347.8257 0002014  96.7344 263.4014 13.12441407266603
ONEWEB-0121             
1 47267U 20100K   26182.47331759 -.00000175  00000+0 -52268-3 0  9997
2 47267  87.8957 347.8155 0001547  88.5166 271.6140 13.12441606266515
ONEWEB-0122             
1 47268U 20100L   26182.46739766  .00000085  00000+0  20100-3 0  9995
2 47268  87.8960 347.8216 0001859  98.9811 261.1528 13.12443159266425
ONEWEB-0123             
1 47269U 20100M   26182.46315883  .00000250  00000+0  65946-3 0  9997
2 47269  87.8945 347.8278 0001919  91.8659 268.2689 13.12441256266563
ONEWEB-0124             
1 47270U 20100N   26182.45299787  .00000434  00000+0  11707-2 0  9991
2 47270  87.8946 347.8329 0001752  91.9805 268.1524 13.12442026266442
ONEWEB-0125             
1 47271U 20100P   26182.50720782  .00000029  00000+0  44630-4 0  9995
2 47271  87.8957 347.8073 0001760  83.3153 276.8176 13.12443619266517
ONEWEB-0126             
1 47272U 20100Q   26182.45145183  .00000362  00000+0  97029-3 0  9995
2 47272  87.8951 347.8329 0001932  95.1294 265.0055 13.12442517266572
ONEWEB-0127             
1 47273U 20100R   26182.49365305 -.00000313  00000+0 -90619-3 0  9996
2 47273  87.8948 347.8229 0001940  96.3522 263.7828 13.12443296266606
ONEWEB-0128             
1 47274U 20100S   26182.43944586  .00000397  00000+0  10690-2 0  9995
2 47274  87.8946 347.8472 0001562 100.4446 259.6858 13.12443317266619
ONEWEB-0129             
1 47275U 20100T   26182.49534021 -.00000410  00000+0 -11755-2 0  9992
2 47275  87.8957 347.8118 0002851 105.4679 254.6764 13.12443779266550
